#aV2019 12  7  0  0  0.00000000     288 DD+AD WGS84 FIT  NGA
## 2082 518400.00000000   300.00000000 58824 0.0000000000000
+   32     1  2  3  4  5  6  7  8  9 10 11 12 13 14 15 16 17
+         18 19 20 21 22 23 24 25 26 27 28 29 30 31 32  0  0
+          0  0  0  0  0  0  0  0  0  0  0  0  0  0  0  0  0
+          0  0  0  0  0  0  0  0  0  0  0  0  0  0  0  0  0
+          0  0  0  0  0  0  0  0  0  0  0  0  0  0  0  0  0
++         2  2  2  2  2  2  2  2  2  2  2  2  2  2  2  2  2
++         2  2  2  2  2  2  2  2  2  2  2  2  2  2  2  0  0
++         0  0  0  0  0  0  0  0  0  0  0  0  0  0  0  0  0
++         0  0  0  0  0  0  0  0  0  0  0  0  0  0  0  0  0
++         0  0  0  0  0  0  0  0  0  0  0  0  0  0  0  0  0
%c cc cc ccc ccc cccc cccc cccc cccc ccccc ccccc ccccc ccccc
%c cc cc ccc ccc cccc cccc cccc cccc ccccc ccccc ccccc ccccc
%f  0.0000000  0.000000000  0.00000000000  0.000000000000000
%f  0.0000000  0.000000000  0.00000000000  0.000000000000000
%i    0    0    0    0      0      0      0      0         0
%i    0    0    0    0      0      0      0      0         0
/*      NGA, ST. LOUIS,MO.                                  
/*   EPHEMERIS COMPUTED FROM 2 DAYS OF DATA                 
/*   EPOCHA v5 SMOOTHER                                     
/*   G1762 IERS2010 SATAF SATAPC                            
*  2019 12  7  2 20  0.00000000
P  1  12682.305594 -21471.464469  -8861.045891   -221.422770                    
V  1   9353.430407  -6294.892644  29620.412346     -0.124160                    
P  2 -20472.837423  11900.131431 -11279.961195   -361.352044                    
V  2   7806.251273 -13486.958506 -27025.169710     -0.075023                    
P  3   4143.586740 -14599.226045 -21855.800246    -48.536671                    
V  3  26752.087862   6789.597176    624.346405     -0.065071                    
P  4    158.140805 -24974.308927  -8933.087659    -17.464032                    
V  4   5348.817284  10432.102190 -28926.460808     -0.047248                    
P  5 -22930.724445   4279.941792  12740.323918     -4.366106                    
V  5 -15446.624485  -5875.599405 -25361.259357     -0.004898                    
P  6 -17328.498884  -1466.101200 -20035.608005   -146.041100                    
V  6  17011.939541 -19006.884162 -13262.230232     -0.113392                    
P  7  -2505.226229 -17525.787417  19936.256258   -164.507396                    
V  7  18504.858492 -16667.329646 -12978.195986     -0.082143                    
P  8   8265.467657 -16913.443562  18678.676596    -15.863684                    
V  8   8221.148545  22276.425818  16783.713901     -0.013016                    
P  9  -6655.410919 -25666.806744  -1484.755412   -101.831650                    
V  9   3489.059427    849.620027 -31496.098535     -0.094611                    
P 10  22505.105152  11607.111670   8457.915018   -162.645312                    
V 10 -10825.949336   -292.848026  29214.883792     -0.143968                    
P 11   7413.881963 -25675.909243  -1060.343633   -426.773497                    
V 11   4107.000804    522.290092  30392.336681      0.110664                    
P 12  -9818.281351  12102.929911 -21701.695835    175.886811                    
V 12 -25533.045503  -8821.311782   6863.848143     -0.039975                    
P 13 -13459.842200   8385.034233  21171.324832    -28.271382                    
V 13  -4807.265369 -26742.345020   7564.210160      0.024236                    
P 14  15690.695401   6492.989647 -20142.723571    -46.315305                    
V 14   4220.006462  25940.326425  11286.968643      0.021952                    
P 15  -6803.176082  18346.663181  17485.724048   -267.482972                    
V 15 -10800.896544 -20515.691579  17418.051664      0.026844                    
P 16  23870.095015   -194.757425  11912.311851   -100.454339                    
V 16  13889.420819   6462.108568 -26850.325132     -0.038441                    
P 17 -13722.940124 -17303.564959 -14380.547743    176.213369                    
V 17  -2573.751268 -18829.491226  24326.555277      0.067967                    
P 18  16931.348684 -20392.716441   -858.692439    105.032974                    
V 18   2601.711305   1609.395493  31708.480650      0.024844                    
P 19 -15148.676754  -9901.988380 -19727.616824   -229.789349                    
V 19  -3375.835845 -24148.296647  14950.942163      0.051817                    
P 20  14935.800496  14252.601868  16717.061582    527.610530                    
V 20 -21541.301744   -305.803046  19192.466043      0.000791                    
P 21   6265.392678  15915.698915  21159.996109    -74.781597                    
V 21 -16781.487873  18639.662972  -9199.272019      0.058190                    
P 22  12544.380320 -12649.840475 -19452.154291   -776.159859                    
V 22  24713.028782   5735.157476  12174.849240     -0.021168                    
P 23    113.208557 -24243.688734 -10038.897751   -151.123897                    
V 23   7189.243571  11813.073714 -27883.901948      0.023366                    
P 24 -13046.381838  22105.840116  -6224.206203     -5.859325                    
V 24  -7862.639341   3495.416522  30104.025404     -0.005204                    
P 25   6246.550781  16104.486570 -20464.007929    -17.415227                    
V 25 -24829.951217  -5444.729030 -11732.213721      0.000486                    
P 26  26266.405454   3938.576331   2442.861243    100.187891                    
V 26   2400.909480   3591.541927 -31155.971439      0.082238                    
P 27  13993.383508  -4776.273537  21943.009487   -142.604921                    
V 27   7966.364969  26940.958330   1084.726401     -0.117121                    
P 28 -21652.141277 -13313.714463   8075.036836    751.817337                    
V 28   9594.029594   1181.279956  30042.179020     -0.017444                    
P 29   4108.523388  26136.926875  -2214.338553     25.140517                    
V 29  -2569.014891  -2282.274726 -32150.467455     -0.098315                    
P 30 -12609.669697  -9546.096912  21381.076398   -100.199554                    
V 30  19433.953320 -18950.806134   2809.165682     -0.085700                    
P 31  19162.275297   -498.057890 -18600.389370     -8.102639                    
V 31 -15860.201081  17264.439611 -16369.891572     -0.024999                    
P 32  15432.353384  15976.544395 -14599.569309    147.772302                    
V 32   3213.627343  18443.455466  23351.787400      0.115777                    
EOF
